{"type":"Feature","properties":{"osm_relation_id":1157393,"name":"городской округ Красноярск","source":"OpenStreetMap","admin_level":6,"boundary":"administrative"},"geometry":{"type":"Polygon","coordinates":[[[92.1163489,56.0003967],[92.1596463,56.000203],[92.1591268,55.9924787],[92.1891752,55.9912921],[92.1883093,55.9794239],[92.2146342,55.9777766],[92.2132545,55.9690469],[92.2495685,55.9669539],[92.279363,55.9660563],[92.2837308,55.9840105],[92.3516374,55.9802387],[92.3570063,55.9959731],[92.3758819,55.9964824],[92.395751,55.9964129],[92.4031605,55.9941211],[92.4111495,55.9943294],[92.4111495,55.9931024],[92.4834231,55.9934989],[92.5254664,55.990343],[92.493055,55.9784869],[92.508883,55.9696807],[92.5132978,55.9691255],[92.5171377,55.969744],[92.5249865,55.9710083],[92.5291059,55.9716497],[92.529393,55.9711055],[92.5329589,55.971232],[92.5328935,55.971522],[92.5360764,55.9716796],[92.5359009,55.9722525],[92.5364109,55.9720544],[92.5368534,55.9717369],[92.5369739,55.9716369],[92.5371306,55.9712273],[92.5385367,55.9713165],[92.5393515,55.9708575],[92.5395008,55.9704131],[92.5395534,55.9702961],[92.5415043,55.9704964],[92.5415436,55.9703803],[92.5440967,55.9628342],[92.544845,55.9628267],[92.5457114,55.9627921],[92.5462961,55.9627591],[92.5474039,55.9627298],[92.5474441,55.9627298],[92.5483239,55.962702],[92.5488341,55.9627035],[92.5488663,55.962708],[92.5488891,55.9627208],[92.5489039,55.9627471],[92.5489221,55.9628349],[92.5489396,55.9628499],[92.5489677,55.9628559],[92.5491547,55.9628439],[92.5491922,55.9628406],[92.549206,55.9628338],[92.5492096,55.9628256],[92.5492103,55.9627435],[92.5492183,55.9627093],[92.5492331,55.9626875],[92.5492774,55.9626703],[92.5493813,55.9626668],[92.5495478,55.9626682],[92.5495679,55.9626674],[92.5504548,55.9626698],[92.5505534,55.9625951],[92.5536811,55.962596],[92.5536952,55.9625411],[92.5549811,55.9625699],[92.5569123,55.962645],[92.5582749,55.962696],[92.5587577,55.9627261],[92.5588569,55.9627411],[92.5589749,55.9627741],[92.5591868,55.9628567],[92.5593665,55.9628897],[92.5595248,55.9628882],[92.5597661,55.9628491],[92.560029,55.9628237],[92.5605333,55.9628297],[92.5618395,55.9628312],[92.5636017,55.9627801],[92.565152,55.9627126],[92.5659272,55.9626645],[92.5667962,55.9626225],[92.5675709,55.9626261],[92.5682902,55.9625189],[92.5687221,55.9625054],[92.5693041,55.9624979],[92.5698191,55.9624708],[92.5701302,55.9624333],[92.5703475,55.9623733],[92.5705835,55.9623267],[92.5712353,55.9622381],[92.5722223,55.9621556],[92.5727802,55.9620865],[92.5731343,55.9620174],[92.5734025,55.9619619],[92.5736627,55.9619229],[92.5740516,55.9618838],[92.5744244,55.9618478],[92.5747463,55.9617982],[92.5752398,55.9617307],[92.5764281,55.9615971],[92.5770047,55.9615085],[92.5771925,55.9614845],[92.5773668,55.9614664],[92.5778174,55.9614184],[92.5780695,55.9613718],[92.5786999,55.9612668],[92.5793945,55.9611646],[92.5800839,55.9610461],[92.5808188,55.960959],[92.5816181,55.9608674],[92.5827044,55.9607142],[92.5835386,55.9605911],[92.5838685,55.9605401],[92.5841019,55.960495],[92.5843674,55.9604155],[92.5846517,55.9603539],[92.5848623,55.9603321],[92.5850862,55.9603216],[92.585168,55.9603284],[92.5852083,55.9603659],[92.585223,55.9604357],[92.5852378,55.9604853],[92.5852492,55.9605033],[92.5852619,55.9605086],[92.585279,55.9605104],[92.5852914,55.9605086],[92.5853055,55.9604999],[92.5853156,55.9604838],[92.5853129,55.9603749],[92.5853263,55.9603539],[92.5853598,55.9603426],[92.5854108,55.9603389],[92.5858802,55.960402],[92.5863093,55.9604545],[92.5866888,55.960483],[92.5874224,55.9605551],[92.5879991,55.9606332],[92.5881158,55.9606549],[92.5881567,55.9606538],[92.5881775,55.9606471],[92.5881828,55.9606362],[92.5881822,55.9606234],[92.5881775,55.9606114],[92.5881319,55.9605836],[92.587869,55.9605176],[92.5877403,55.960495],[92.5875981,55.9604748],[92.5871971,55.9604402],[92.5870013,55.9604177],[92.586766,55.9603909],[92.5864595,55.9603644],[92.5860344,55.9603306],[92.5859955,55.9603164],[92.5859787,55.9602901],[92.585972,55.9602683],[92.5859707,55.9602518],[92.5859754,55.9602285],[92.5859955,55.9602041],[92.5860438,55.960173],[92.5862,55.9601328],[92.5862322,55.9601283],[92.5867727,55.9600291],[92.5868002,55.9600236],[92.5871327,55.959968],[92.5876477,55.959896],[92.5884309,55.9597834],[92.5887635,55.9596993],[92.5891315,55.9596398],[92.589536,55.9596017],[92.5898552,55.9595642],[92.590102,55.9595236],[92.5904211,55.9594906],[92.5908369,55.9594756],[92.591258,55.9594681],[92.5914256,55.9594711],[92.5914712,55.9594838],[92.5914954,55.9595018],[92.5915343,55.9595634],[92.5915638,55.9595919],[92.5915866,55.9596],[92.5916047,55.9596017],[92.5916214,55.9595993],[92.5916308,55.9595927],[92.5916536,55.9595446],[92.5916778,55.9595109],[92.5916979,55.9594996],[92.5917354,55.9594891],[92.5918078,55.9594876],[92.5931382,55.9595401],[92.5939107,55.9595882],[92.5939979,55.9596062],[92.5940327,55.9596302],[92.5940528,55.9596633],[92.5940609,55.9597654],[92.5940891,55.9598262],[92.5941226,55.9598457],[92.5941856,55.9598667],[92.5942527,55.9598765],[92.5944042,55.9598644],[92.5945088,55.9598434],[92.5946794,55.9597843],[92.5948595,55.95973],[92.5950097,55.959715],[92.595969,55.9596808],[92.5973673,55.9597395],[92.6001246,55.9599016],[92.6011859,55.9599513],[92.6019638,55.9599393],[92.602704,55.9599693],[92.6032995,55.9600204],[92.6042432,55.9601345],[92.6049674,55.9602696],[92.6053698,55.9603297],[92.6055709,55.9603552],[92.6057641,55.9603846],[92.606024,55.9604241],[92.6066474,55.9605109],[92.6075394,55.9606462],[92.6082395,55.9607302],[92.6091536,55.9607973],[92.609867,55.9609323],[92.6107013,55.9610385],[92.6111913,55.9611304],[92.6120585,55.9612157],[92.6127344,55.9612187],[92.6137054,55.9611917],[92.6146871,55.9611707],[92.6153361,55.9611826],[92.6162964,55.9612608],[92.6172996,55.9614079],[92.6181364,55.961573],[92.6188499,55.9616841],[92.6195902,55.9617262],[92.6203519,55.9617442],[92.6212317,55.9617081],[92.622208,55.9616931],[92.6235437,55.9617442],[92.6247132,55.9618253],[92.6257431,55.9619093],[92.6269019,55.9620505],[92.6283717,55.9622156],[92.6311505,55.9625519],[92.6329154,55.9627801],[92.6343852,55.9629993],[92.6352382,55.9631765],[92.6362574,55.9633896],[92.6371157,55.9635758],[92.6382154,55.963774],[92.6390147,55.9638731],[92.6394975,55.963897],[92.6400071,55.9639151],[92.6403987,55.9639391],[92.640903,55.9640082],[92.6416165,55.9641583],[92.641992,55.9642214],[92.6425445,55.9642784],[92.6445401,55.9645186],[92.6457792,55.9646267],[92.6467878,55.9646777],[92.6480859,55.9647348],[92.6496094,55.9647438],[92.6515675,55.9646867],[92.6526135,55.9645907],[92.6532304,55.9645636],[92.6537668,55.9645456],[92.6540995,55.9645366],[92.6544964,55.9645006],[92.654947,55.9644315],[92.6555747,55.9643775],[92.656551,55.9643204],[92.657817,55.9643024],[92.6589489,55.9642634],[92.6605529,55.9641733],[92.6612556,55.9641433],[92.6617545,55.9640802],[92.6624036,55.9639631],[92.6630312,55.963864],[92.663691,55.963762],[92.6649785,55.9635728],[92.6660299,55.9634437],[92.666899,55.9633206],[92.6678753,55.9631885],[92.6685458,55.9631074],[92.6691252,55.9630564],[92.6697099,55.9630323],[92.6703,55.9630624],[92.6708794,55.9630924],[92.6725101,55.9631855],[92.6736045,55.9632575],[92.6750743,55.9634227],[92.6757073,55.9635067],[92.6763725,55.9635518],[92.6771504,55.9636268],[92.6778263,55.9637379],[92.6781589,55.963831],[92.6784378,55.9639271],[92.6787704,55.9640653],[92.6791878,55.9641753],[92.6789558,55.9620239],[92.6746134,55.9601392],[92.6738592,55.9589906],[92.6733363,55.9567582],[92.6732442,55.9548591],[92.6734985,55.95473],[92.6740036,55.9546197],[92.67409,55.9545503],[92.6741143,55.9545514],[92.6741343,55.9545524],[92.6741463,55.9545918],[92.6742304,55.9547079],[92.6744141,55.9548048],[92.6748931,55.955076],[92.6750454,55.9551557],[92.6753352,55.9553169],[92.6766752,55.9560423],[92.6771552,55.9562286],[92.6802349,55.9565341],[92.6828352,55.9567944],[92.6905626,55.9559983],[92.707265,55.9554811],[92.718333,55.9546812],[92.7240388,55.954231],[92.7302796,55.9538162],[92.7425801,55.9529182],[92.746038,55.9526883],[92.7538406,55.9522752],[92.7637302,55.9517735],[92.7780438,55.9517703],[92.7804986,55.951825],[92.7808875,55.9518565],[92.7832243,55.951883],[92.7841008,55.951876],[92.7849682,55.9518963],[92.7847485,55.9514957],[92.7831514,55.9498803],[92.7814472,55.9483883],[92.7820862,55.9481606],[92.783565,55.9489384],[92.7841011,55.9491816],[92.7856009,55.9498341],[92.786445,55.9502796],[92.7878671,55.9511805],[92.7887281,55.9519793],[92.7931789,55.952256],[92.7968907,55.9521346],[92.798109,55.9521444],[92.8023246,55.9521671],[92.804507,55.9521208],[92.8070316,55.9520493],[92.8100458,55.9508509],[92.8120003,55.9500292],[92.8134467,55.9496249],[92.821735,55.9480965],[92.8224072,55.948003],[92.8235239,55.9477911],[92.8242437,55.9476064],[92.8265099,55.9471638],[92.8371093,55.944808],[92.8375005,55.9443912],[92.8374342,55.9435025],[92.8373345,55.942165],[92.8354243,55.942139],[92.8354292,55.9417194],[92.8354322,55.941661],[92.837478,55.9416141],[92.8398369,55.9415968],[92.8407065,55.9413775],[92.8416171,55.9403861],[92.8423738,55.9399658],[92.8430884,55.9398284],[92.8434089,55.938933],[92.8441218,55.9378698],[92.8446143,55.9377917],[92.8453094,55.936486],[92.8453901,55.935571],[92.8454955,55.9347291],[92.8457915,55.9341175],[92.8470342,55.9334259],[92.8484034,55.9329627],[92.8490421,55.9324651],[92.8494844,55.9318344],[92.8498527,55.9316458],[92.8509286,55.9311043],[92.8516244,55.930599],[92.8518481,55.9302306],[92.8516858,55.9290193],[92.8511321,55.9277509],[92.8504225,55.9266799],[92.8503209,55.9264591],[92.8503203,55.9262365],[92.8506527,55.9256725],[92.8507442,55.9251726],[92.8508796,55.9248679],[92.8515079,55.9238668],[92.8522676,55.923373],[92.8531435,55.9224994],[92.8529902,55.9221052],[92.8530389,55.9213216],[92.8534421,55.9187633],[92.8581958,55.9152906],[92.8632849,55.9174108],[92.8689159,55.9198891],[92.8713967,55.9194327],[92.8708958,55.9177803],[92.8711921,55.9170142],[92.8756499,55.9147382],[92.8802569,55.9122372],[92.8834127,55.9120131],[92.8858422,55.9118405],[92.8865227,55.9124309],[92.8879857,55.9138601],[92.8894191,55.9192871],[92.8911156,55.9243529],[92.8925588,55.9294335],[92.8927449,55.9298546],[92.8935602,55.9327521],[92.8938288,55.9339646],[92.8984089,55.949525],[92.8983622,55.9504746],[92.8988135,55.9509269],[92.9000688,55.9514285],[92.9005715,55.9516572],[92.9013014,55.9516863],[92.9077013,55.9521502],[92.9097972,55.9521822],[92.9110841,55.9517157],[92.9127791,55.9524198],[92.9208896,55.9487418],[92.937833,55.947926],[92.9410903,55.9478376],[92.9526281,55.9473395],[92.9585898,55.9471354],[92.9601386,55.9470195],[92.9633421,55.946935],[92.966366,55.9468691],[92.9715479,55.947869],[92.9712887,55.9499967],[92.9710931,55.9514076],[92.9710561,55.9516598],[92.9709861,55.9524778],[92.9708997,55.9534251],[92.9708971,55.953518],[92.9785402,55.9531371],[92.9803411,55.9539512],[92.9816339,55.9538114],[92.9863219,55.9535911],[92.9864683,55.9539258],[92.9862803,55.954018],[92.9866918,55.9548019],[92.9882971,55.9568613],[92.9891308,55.9572919],[92.9895516,55.9576257],[92.9910772,55.9579211],[92.9915741,55.9580383],[92.9917815,55.9581278],[92.9930169,55.9591063],[92.9930659,55.9590885],[92.9945929,55.9594711],[92.9947664,55.9594826],[92.9950403,55.9594541],[92.9963999,55.9603598],[92.9969289,55.9615118],[92.9985379,55.9622711],[92.9989426,55.9622753],[92.9990538,55.9627883],[92.9990348,55.9627949],[92.999061,55.9628726],[92.9990249,55.962901],[92.9982734,55.9629744],[93.000384,55.9654727],[93.0041814,55.968905],[93.0047929,55.9694934],[93.0050202,55.9700198],[93.0061593,55.9705093],[93.0080677,55.9719286],[93.0107617,55.9748818],[93.0111553,55.9760394],[93.0110604,55.9762235],[93.0128337,55.9766917],[93.0175075,55.9753657],[93.0217419,55.9746849],[93.0274663,55.9740312],[93.0344429,55.9732345],[93.0377526,55.9819501],[93.0416797,55.980819],[93.0440647,55.9801774],[93.0463854,55.9795899],[93.0463387,55.978895],[93.0521053,55.9789312],[93.0525148,55.979108],[93.0541516,55.9792397],[93.0551111,55.9808805],[93.0552339,55.9811972],[93.0553009,55.9811994],[93.0554508,55.9814437],[93.0557549,55.9825324],[93.056181,55.9836758],[93.0568492,55.9835828],[93.0651383,55.9831641],[93.067158,55.9830224],[93.0720699,55.9826149],[93.0739943,55.9824214],[93.0745302,55.9823573],[93.0744798,55.9819983],[93.0748035,55.981811],[93.0751139,55.9818005],[93.0758803,55.9817971],[93.0762613,55.9817222],[93.0763947,55.9815557],[93.0765985,55.9807887],[93.0753735,55.9799155],[93.0749936,55.9797439],[93.0735463,55.9790307],[93.0717252,55.978463],[93.0684037,55.9777964],[93.0654676,55.9769118],[93.0650592,55.9768526],[93.0646969,55.9765151],[93.0716674,55.9780227],[93.0808996,55.9792884],[93.0924085,55.9825879],[93.0963881,55.9859546],[93.100162,55.9889399],[93.1005114,55.9891359],[93.1032456,55.9899574],[93.1058562,55.9906722],[93.1075185,55.991137],[93.1081998,55.9911865],[93.1108699,55.9914059],[93.1116224,55.9914297],[93.1127559,55.9915577],[93.1134662,55.9915781],[93.1148614,55.9917039],[93.1202729,55.9921071],[93.1206139,55.9923622],[93.1162288,55.9940526],[93.1119963,55.9955988],[93.1117667,55.9953889],[93.1116221,55.9954269],[93.1112413,55.9951686],[93.109903,55.995741],[93.1101686,55.9959374],[93.106798,55.9972635],[93.1066534,55.9973542],[93.1061964,55.9975608],[93.1047274,55.9987598],[93.1033248,55.9999537],[93.1029746,56.0004579],[93.1028737,56.0008541],[93.1027171,56.0014726],[93.1025773,56.0026576],[93.1029613,56.0037545],[93.1043956,56.005827],[93.1068156,56.0091699],[93.1065323,56.0092491],[93.1074492,56.0106518],[93.1073238,56.0106858],[93.1071649,56.0107288],[93.1074669,56.0111361],[93.1078979,56.0112181],[93.1096146,56.0127055],[93.1104043,56.0137246],[93.1098022,56.0139048],[93.1107545,56.0150167],[93.1114074,56.015875],[93.1122869,56.0168795],[93.1130989,56.0180011],[93.1133401,56.018817],[93.112304,56.0198004],[93.1118447,56.0199795],[93.1132699,56.0206642],[93.1131985,56.0208304],[93.1141057,56.0209106],[93.1146057,56.0179584],[93.1142002,56.0161084],[93.1129233,56.0134853],[93.1134663,56.0132874],[93.1126546,56.0119214],[93.1120473,56.0090395],[93.1105797,56.0074253],[93.1093037,56.0067751],[93.1069556,56.0055509],[93.1062355,56.0048579],[93.1059758,56.0042572],[93.105421,56.0042968],[93.105303,56.0039668],[93.105782,56.0038917],[93.1058342,56.0031549],[93.1061484,56.0024425],[93.1066841,56.001815],[93.1074537,56.0011952],[93.1098596,55.9998017],[93.1125545,55.9988052],[93.1141228,55.9982391],[93.1143648,55.9983315],[93.1150731,55.9980707],[93.1149962,55.9979476],[93.1172187,55.9971416],[93.1174986,55.997201],[93.1181497,55.996949],[93.1179401,55.996712],[93.1244963,55.9943202],[93.1280582,55.9935581],[93.1280456,55.9933723],[93.1318058,55.9927136],[93.1341097,55.9920227],[93.137486,55.9904857],[93.1411381,55.9876338],[93.1409532,55.987454],[93.1453537,55.9838363],[93.1457505,55.9821966],[93.1522097,55.9840124],[93.1573673,55.9915664],[93.1590262,55.9939303],[93.1606733,55.9962586],[93.1620582,55.9980789],[93.1663614,56.0010331],[93.1741683,56.0066966],[93.1795257,56.0102389],[93.1812191,56.0108302],[93.1846975,56.0115938],[93.1880775,56.0125727],[93.1898169,56.0124205],[93.1924296,56.0128031],[93.1935064,56.0129104],[93.1941659,56.0127331],[93.1945666,56.0122991],[93.1945916,56.0120845],[93.1931556,56.0113041],[93.1923647,56.0113107],[93.1916918,56.0114031],[93.1907002,56.0115879],[93.190287,56.0110665],[93.1903342,56.0100568],[93.190653,56.0096146],[93.1949145,56.0091791],[93.1991727,56.0096485],[93.2003848,56.0094676],[93.2015701,56.009141],[93.2089659,56.0090196],[93.2102847,56.0092063],[93.2124383,56.0083663],[93.2153766,56.009981],[93.2143582,56.0073396],[93.2151596,56.0072929],[93.2172297,56.0064342],[93.2196838,56.0063409],[93.218799,56.0074143],[93.2161279,56.0081143],[93.2160277,56.0084503],[93.2176137,56.0090196],[93.2181577,56.0094133],[93.218582,56.0094396],[93.2195336,56.0098876],[93.2204351,56.010149],[93.2224551,56.0083476],[93.2230394,56.008273],[93.2252097,56.0091316],[93.2247924,56.009841],[93.2238575,56.0109329],[93.2247423,56.0113436],[93.2254769,56.0111009],[93.2284151,56.0094396],[93.2290996,56.009309],[93.2298175,56.009337],[93.2314702,56.0100276],[93.2293451,56.0123788],[93.2297006,56.0125848],[93.2307023,56.0125195],[93.2322215,56.0115022],[93.2335738,56.0101396],[93.2345254,56.009701],[93.2361614,56.0095796],[93.2376973,56.009197],[93.2388326,56.0087023],[93.2396506,56.0087956],[93.2401286,56.0085807],[93.2407659,56.0087936],[93.2419408,56.0086911],[93.2423067,56.0090277],[93.2420352,56.0098922],[93.2412443,56.0103344],[93.2420352,56.0110867],[93.2426491,56.0113441],[93.2431685,56.0120634],[93.2451866,56.0129538],[93.24626,56.0130099],[93.2465717,56.0131412],[93.2466954,56.0133593],[93.2473618,56.0145133],[93.247462,56.0148819],[93.2475524,56.0152091],[93.2453402,56.0155355],[93.2446144,56.0156901],[93.2446369,56.0159559],[93.2449458,56.0161145],[93.2456803,56.0161099],[93.2464149,56.0160259],[93.248056,56.015784],[93.2496893,56.0154842],[93.2500982,56.0161141],[93.2503192,56.0163748],[93.2500536,56.0163023],[93.2497821,56.016299],[93.2494634,56.0164342],[93.2492096,56.0166157],[93.2491565,56.0167971],[93.2493394,56.016939],[93.2505966,56.0168697],[93.2509567,56.016685],[93.2513108,56.0166355],[93.2515233,56.0166652],[93.2517693,56.0168123],[93.2508203,56.0173409],[93.2499104,56.0174482],[93.2490507,56.0176115],[93.247256,56.018036],[93.2451942,56.0183393],[93.2429321,56.0182273],[93.2420215,56.0183877],[93.2403748,56.019742],[93.2395602,56.0202104],[93.2388422,56.0204775],[93.2380563,56.0215262],[93.2378202,56.021922],[93.236746,56.0232019],[93.2365807,56.0235978],[93.2365689,56.0239738],[93.2368404,56.0242971],[93.2374424,56.0245148],[93.2388236,56.0245741],[93.2391896,56.0247523],[93.2394257,56.0251745],[93.2397562,56.0270941],[93.2389771,56.0272392],[93.2373126,56.0287366],[93.2360023,56.028862],[93.2356481,56.029073],[93.2354238,56.0295018],[93.2357071,56.0305506],[93.2354474,56.030854],[93.2350815,56.0316257],[93.2345975,56.0323842],[93.2338892,56.0329514],[93.2332164,56.0332467],[93.23138,56.0330135],[93.2298608,56.0329855],[93.2284417,56.0332467],[93.2275235,56.0339276],[93.2272731,56.0346831],[93.2246587,56.0404691],[93.2256039,56.0407242],[93.2263886,56.0397636],[93.2295105,56.0385232],[93.2337342,56.0385792],[93.2362885,56.0396331],[93.2377743,56.0411811],[93.2376859,56.0429456],[93.2448831,56.0449981],[93.2432289,56.0466124],[93.2413386,56.0496547],[93.2400103,56.0535383],[93.2393617,56.0541505],[93.238453,56.056495],[93.2372603,56.059277],[93.2364526,56.0609222],[93.23597,56.0620696],[93.2354812,56.0632041],[93.2342166,56.0657766],[93.2335883,56.0670644],[93.2329745,56.0683461],[93.2327293,56.0685167],[93.2324778,56.0686717],[93.2323092,56.0688233],[93.2444715,56.0755731],[93.2370315,56.08008],[93.2289694,56.0849903],[93.2241904,56.088198],[93.2236616,56.0880635],[93.2157451,56.0868252],[93.2118754,56.0862144],[93.2094684,56.0858425],[93.2068446,56.0854152],[93.2043154,56.0849252],[93.2037029,56.0848288],[93.2033439,56.0848452],[93.2032749,56.084835],[93.202788,56.0860058],[93.2019005,56.0877203],[93.2007063,56.0903763],[93.2006213,56.0905004],[93.2005894,56.0905209],[93.2005447,56.0906065],[93.2001472,56.0916996],[93.1989047,56.0940948],[93.1987446,56.0940725],[93.1872317,56.0921822],[93.1856879,56.0918788],[93.1842082,56.0916485],[93.1825827,56.0913658],[93.179586,56.0908761],[93.1775957,56.0905636],[93.1748853,56.0901244],[93.1744105,56.0901817],[93.1746143,56.09049],[93.1747216,56.0907174],[93.174786,56.0910915],[93.1748825,56.0914477],[93.1750166,56.0918337],[93.1752473,56.0923155],[93.175655,56.092914],[93.1758696,56.0931594],[93.1760251,56.0932761],[93.1762478,56.0933689],[93.1764838,56.0934497],[93.1765321,56.0934871],[93.176567,56.0935484],[93.1765509,56.093713],[93.176465,56.0940452],[93.1763787,56.0943095],[93.1763309,56.0947155],[93.1761593,56.0954336],[93.1760801,56.0960755],[93.1760721,56.0961121],[93.1760037,56.0963538],[93.1759554,56.096843],[93.1759205,56.0972948],[93.1758374,56.0984618],[93.1757596,56.0990078],[93.1757006,56.0996885],[93.1756201,56.1004171],[93.1755316,56.1012473],[93.1754485,56.1018322],[93.1754056,56.1020446],[93.1753573,56.1022526],[93.1753224,56.1024366],[93.1753224,56.1026101],[93.1752554,56.1030304],[93.1751937,56.1033251],[93.175132,56.1035061],[93.175014,56.1037649],[93.1749737,56.1038232],[93.1749281,56.1038831],[93.1748477,56.1039519],[93.174786,56.1040072],[93.1747618,56.1040745],[93.1747726,56.1041613],[93.1747752,56.104266],[93.1747726,56.1043737],[93.1747645,56.104444],[93.1745714,56.1052443],[93.1743139,56.1059921],[93.1736702,56.1072276],[93.1729299,56.1085289],[93.1724578,56.1093066],[93.1717658,56.1103266],[93.1708753,56.1113436],[93.1700009,56.1123067],[93.1697139,56.1125594],[93.169561,56.1126791],[93.1693196,56.1128421],[93.1690326,56.1130769],[93.1688261,56.1132459],[93.1685901,56.1134971],[93.1685016,56.1136272],[93.1684345,56.1137394],[93.1683111,56.1138695],[93.1681341,56.1140265],[93.1675574,56.1145394],[93.1669781,56.1150314],[93.1664523,56.1154875],[93.1662485,56.1156326],[93.1660876,56.1157701],[93.1657657,56.1160468],[93.1654599,56.1162965],[93.1648645,56.116769],[93.1645507,56.1169619],[93.1643133,56.1171152],[93.1642368,56.1171466],[93.1641872,56.1171593],[93.1640625,56.1171773],[93.1639874,56.1171945],[93.1639646,56.1172221],[93.1639646,56.1172505],[93.1640008,56.1172804],[93.1641,56.1173717],[93.1641094,56.1174068],[93.1640933,56.1174397],[93.1640477,56.1174621],[93.1638908,56.1175062],[93.163738,56.1175332],[93.1636669,56.1175608],[93.1636253,56.1175975],[93.1636079,56.1176453],[93.163581,56.117732],[93.1635489,56.117806],[93.1633276,56.1180161],[93.1620616,56.1189462],[93.1605864,56.1200467],[93.1588912,56.1212548],[93.1577781,56.1220472],[93.1570995,56.1224898],[93.1565885,56.1227649],[93.1565067,56.1228135],[93.1564759,56.1228494],[93.1564558,56.1228972],[93.1564437,56.122954],[93.1564397,56.1230108],[93.1564155,56.123046],[93.1563713,56.1230721],[93.1562828,56.1230953],[93.156207,56.1231091],[93.156152,56.1231282],[93.1560937,56.1231566],[93.1559354,56.1232941],[93.1557235,56.1234437],[93.155584,56.1235483],[93.139691,56.1244072],[93.1223811,56.126203],[93.1072588,56.1285541],[93.1015081,56.1291937],[93.0943004,56.1299241],[93.0885202,56.1306491],[93.0717192,56.1324494],[93.0726438,56.138657],[93.0712626,56.141377],[93.0690333,56.1415849],[93.0626438,56.1447802],[93.0607975,56.144781],[93.051457,56.1451814],[93.0468253,56.1453332],[93.042405,56.1429025],[93.0378514,56.1415776],[93.025958,56.1388465],[93.0158164,56.1386983],[93.0124411,56.1382593],[93.0108798,56.1380564],[93.008006,56.1374142],[93.0020972,56.1367919],[92.9929976,56.1371705],[92.9764356,56.1419984],[92.9655771,56.1452529],[92.9633027,56.1457863],[92.9622376,56.1460739],[92.9477039,56.1459814],[92.9454711,56.1459738],[92.9451306,56.1459792],[92.9451286,56.1459604],[92.9432014,56.1459443],[92.9432011,56.1460057],[92.9426555,56.1460066],[92.9426722,56.1459367],[92.9424055,56.1459335],[92.9397415,56.145934],[92.9367985,56.1459679],[92.9340096,56.1460812],[92.932257,56.1461151],[92.9294723,56.1461561],[92.9292227,56.1461352],[92.9259358,56.1460933],[92.9232901,56.1461329],[92.9214309,56.1461591],[92.9213543,56.1451595],[92.9213763,56.1447629],[92.9213369,56.1435554],[92.9213212,56.1433734],[92.9212869,56.1425882],[92.9212391,56.1420664],[92.9212718,56.1417959],[92.9212276,56.1413441],[92.9211519,56.1408481],[92.921002,56.139318],[92.9209721,56.1387045],[92.9209477,56.1384816],[92.9209267,56.1382634],[92.9208654,56.1375588],[92.9209696,56.1371503],[92.9209484,56.1365203],[92.9208599,56.1359239],[92.9208963,56.1356314],[92.920663,56.1353428],[92.9205252,56.1352132],[92.9202964,56.1343103],[92.920066,56.1334066],[92.9200116,56.1328548],[92.9195794,56.1302395],[92.9190585,56.1276936],[92.9186759,56.1275243],[92.9183031,56.1274519],[92.9167484,56.1271467],[92.9154348,56.1267684],[92.9119453,56.1267949],[92.9118627,56.1264239],[92.9132414,56.1261981],[92.9133637,56.1253513],[92.9158568,56.124623],[92.9162528,56.1231253],[92.9147503,56.123211],[92.9098521,56.122958],[92.9047051,56.1232057],[92.9040164,56.123413],[92.9036033,56.1235614],[92.9002574,56.1240952],[92.8983072,56.1243843],[92.8971829,56.1243907],[92.8963225,56.1244816],[92.89562,56.1246564],[92.8945782,56.1247078],[92.8926309,56.1244831],[92.889798,56.124285],[92.8847286,56.1240959],[92.8834144,56.1240743],[92.881369,56.1241297],[92.8801847,56.1241208],[92.8798394,56.1234432],[92.8792399,56.1225844],[92.8786223,56.1215454],[92.8778617,56.1207559],[92.8712104,56.1193941],[92.870218,56.1191975],[92.8700827,56.1178319],[92.870149,56.1175791],[92.8699793,56.115295],[92.8702673,56.1141901],[92.8709382,56.1119411],[92.8709627,56.1103354],[92.8703736,56.1099211],[92.8701194,56.1099207],[92.870054,56.1095969],[92.869957,56.1095227],[92.8699004,56.1094818],[92.8646169,56.1094442],[92.863917,56.1093674],[92.8613241,56.1093263],[92.8587906,56.1093004],[92.8547515,56.1096436],[92.8481876,56.1102429],[92.8461968,56.1109343],[92.8456479,56.1117429],[92.8411965,56.1119492],[92.8381722,56.1121006],[92.8382349,56.1121612],[92.8374663,56.1122939],[92.8375213,56.1123966],[92.8369731,56.1124606],[92.8359027,56.1128478],[92.8348189,56.1130897],[92.8334863,56.1130967],[92.8334905,56.1132574],[92.8189861,56.113954],[92.8189777,56.1138422],[92.8134764,56.1138562],[92.8134638,56.113805],[92.805303,56.113515],[92.802986,56.1132457],[92.8021636,56.1126488],[92.8001266,56.1116355],[92.7955581,56.1092317],[92.7936613,56.1086867],[92.7862501,56.1076866],[92.7806585,56.1060744],[92.7774014,56.1046746],[92.7726109,56.1029589],[92.7698568,56.1053609],[92.7679377,56.1048626],[92.7655546,56.1058021],[92.7641287,56.1061888],[92.7626442,56.1067715],[92.7615504,56.1073733],[92.7572433,56.1086668],[92.7548847,56.109176],[92.7539715,56.1093666],[92.7521257,56.1093257],[92.7519254,56.1094047],[92.7506698,56.1120614],[92.7510121,56.112382],[92.7515228,56.1130553],[92.751728,56.1138595],[92.7519935,56.1143638],[92.7526716,56.1149422],[92.7529458,56.1154292],[92.7530764,56.1157957],[92.7528303,56.11597],[92.7523468,56.1160523],[92.7517511,56.1158056],[92.7508705,56.1159091],[92.7505216,56.1161336],[92.7504341,56.1162701],[92.7503526,56.1165463],[92.7504761,56.1167849],[92.7506593,56.1169867],[92.7505966,56.1172981],[92.7503203,56.1174456],[92.7500562,56.117486],[92.7498325,56.1174052],[92.7493057,56.1173491],[92.7488351,56.1174479],[92.7477844,56.1177638],[92.7473986,56.1179492],[92.7471889,56.1183056],[92.7471734,56.1185373],[92.7482146,56.1194817],[92.7485936,56.1206083],[92.7487471,56.1210296],[92.7493799,56.1215987],[92.7496202,56.1217302],[92.7494675,56.1222166],[92.7493605,56.1224863],[92.7499179,56.1226514],[92.75073,56.1234671],[92.7505466,56.1280529],[92.750841,56.1335536],[92.7477181,56.1343687],[92.7470063,56.1358704],[92.7466351,56.1363199],[92.7463181,56.1378799],[92.7460968,56.1387148],[92.7460074,56.1394534],[92.7458023,56.1399376],[92.7357225,56.1392859],[92.7355753,56.140584],[92.7354399,56.1420092],[92.7352033,56.1435443],[92.7351302,56.1445362],[92.7347561,56.1460881],[92.7341836,56.1471935],[92.7341949,56.1473264],[92.7341142,56.1474651],[92.7339788,56.1475403],[92.7334431,56.148448],[92.7300787,56.153979],[92.7290907,56.1538032],[92.7289463,56.1540287],[92.7288283,56.154047],[92.7285504,56.1545181],[92.7289814,56.1546084],[92.7288118,56.1548921],[92.7285951,56.1550236],[92.7283947,56.1553735],[92.7284359,56.1554454],[92.7280764,56.1557113],[92.7277334,56.1560704],[92.7273142,56.1564984],[92.7270057,56.1566961],[92.7269805,56.156801],[92.7264508,56.1571111],[92.7256203,56.156962],[92.725729,56.1568604],[92.7246893,56.1566458],[92.7238443,56.1568935],[92.7223978,56.157482],[92.7242968,56.1587739],[92.7238734,56.1589298],[92.7231782,56.1591638],[92.7223981,56.1593869],[92.7216833,56.1595694],[92.7208177,56.1597399],[92.7201431,56.1598668],[92.7187015,56.1600697],[92.7173883,56.1601805],[92.7160103,56.1602659],[92.7141444,56.1603241],[92.7122956,56.1602449],[92.706671,56.1599554],[92.7069964,56.1583861],[92.7070963,56.1572177],[92.7074388,56.155942],[92.7088611,56.1546471],[92.7090548,56.1541018],[92.708883,56.1539512],[92.7086382,56.1536053],[92.7093535,56.1509971],[92.7094038,56.1507504],[92.709349,56.1505163],[92.7131169,56.1446886],[92.7137392,56.1422779],[92.7135407,56.1384729],[92.7131753,56.1376001],[92.7038495,56.1365898],[92.7007851,56.1357373],[92.6995383,56.1354879],[92.6987665,56.1354574],[92.697506,56.135605],[92.6943822,56.1363379],[92.6929436,56.1364931],[92.6806036,56.137053],[92.6753613,56.1364102],[92.6727862,56.1360405],[92.67219,56.1359118],[92.6657814,56.1350074],[92.654942,56.1332071],[92.6550932,56.131836],[92.6525734,56.1299943],[92.6513513,56.1298452],[92.6479172,56.1297408],[92.6469895,56.1298253],[92.6453661,56.1297657],[92.6248771,56.1304268],[92.6206659,56.1304521],[92.616018,56.13048],[92.6140199,56.1298715],[92.6116365,56.1297403],[92.6034315,56.129523],[92.6004523,56.1301891],[92.5899831,56.1294387],[92.5896174,56.1306367],[92.5897858,56.1334022],[92.5873952,56.1408561],[92.5865665,56.1441104],[92.5854722,56.1459578],[92.5838445,56.1503276],[92.5824644,56.1501933],[92.5801018,56.1506477],[92.5800434,56.1504759],[92.5728886,56.1459216],[92.5678894,56.1446057],[92.5604589,56.1432197],[92.5568071,56.1423016],[92.5531517,56.1413824],[92.5559752,56.1402804],[92.5578982,56.1394085],[92.5598016,56.1383142],[92.5606708,56.1374201],[92.5632366,56.1342845],[92.5639004,56.1335867],[92.564561,56.1331165],[92.5660169,56.1322688],[92.572148,56.127842],[92.5694026,56.1279817],[92.5502043,56.1267413],[92.5398471,56.1257741],[92.530639,56.1252938],[92.5289633,56.1253249],[92.5265794,56.1251215],[92.5136189,56.1243194],[92.5092739,56.1240117],[92.5060188,56.1237442],[92.4989157,56.1233364],[92.4977075,56.1230296],[92.498426,56.1225596],[92.4993107,56.1221111],[92.5009676,56.1203309],[92.5016741,56.1197783],[92.5023972,56.118372],[92.5025101,56.1176462],[92.5024823,56.1171439],[92.5031747,56.1159903],[92.5035771,56.1156962],[92.5039572,56.1153186],[92.504133,56.1149773],[92.5042718,56.1144766],[92.5042812,56.1138252],[92.5038831,56.1130282],[92.5024852,56.1114013],[92.5021199,56.1111189],[92.5010157,56.1104357],[92.500382,56.1101517],[92.4997324,56.110015],[92.4986245,56.1094994],[92.4972532,56.1087774],[92.4965836,56.1084747],[92.4954471,56.1077349],[92.4939318,56.1071411],[92.4932919,56.1067983],[92.4928636,56.1063269],[92.4928739,56.1053151],[92.4930167,56.1047439],[92.4929905,56.1041374],[92.4927639,56.1033795],[92.4922248,56.1027092],[92.4915612,56.1021269],[92.4907056,56.1015307],[92.4899128,56.100909],[92.4898359,56.1002648],[92.4893048,56.0975887],[92.4865967,56.098537],[92.4858929,56.0979146],[92.4785946,56.1005048],[92.4753598,56.101702],[92.4733614,56.1005135],[92.4724346,56.0997037],[92.4723583,56.0995482],[92.4719335,56.0991919],[92.4716257,56.0989687],[92.4715607,56.0987545],[92.4716098,56.0984988],[92.4701652,56.0988696],[92.4695003,56.0990748],[92.4692245,56.0991853],[92.4686941,56.0994811],[92.468614,56.099921],[92.469065,56.100789],[92.4714048,56.1019882],[92.4733306,56.1020155],[92.4736345,56.1021878],[92.4740379,56.1022257],[92.4629449,56.1060174],[92.4613778,56.1062889],[92.4600618,56.1064885],[92.4595198,56.1065544],[92.4575742,56.1068453],[92.4564987,56.1070239],[92.4545691,56.1073434],[92.4543307,56.1068081],[92.454047,56.1068003],[92.4533921,56.105643],[92.4542455,56.1054661],[92.454417,56.1054618],[92.4545059,56.1054183],[92.4545028,56.1053531],[92.4544647,56.1052879],[92.4541675,56.1051835],[92.4543562,56.1050888],[92.4543281,56.1048931],[92.4543983,56.1048279],[92.4543484,56.1047897],[92.4541796,56.1044412],[92.4542317,56.1037995],[92.4545481,56.1033197],[92.4546386,56.1031463],[92.4496948,56.1025614],[92.4480274,56.1025662],[92.4448795,56.1030957],[92.4433155,56.1033802],[92.4392988,56.1038778],[92.43341,56.1047599],[92.4297127,56.1053943],[92.4273003,56.1057303],[92.4261053,56.1060397],[92.4249071,56.1066039],[92.4239289,56.1068848],[92.4226904,56.1070965],[92.4214437,56.1072865],[92.4202402,56.1076805],[92.4196946,56.1079779],[92.4195761,56.1080558],[92.4192662,56.1082823],[92.4188409,56.1086972],[92.4185879,56.1090591],[92.4183922,56.1095635],[92.4181262,56.1107651],[92.4176553,56.111498],[92.4172555,56.1119175],[92.4165916,56.1123336],[92.4158571,56.1125808],[92.4148092,56.1128369],[92.4135764,56.1129403],[92.4126891,56.1129373],[92.4119848,56.1128805],[92.4104805,56.1127716],[92.4093614,56.1128374],[92.4083979,56.1129647],[92.4077535,56.113032],[92.4072093,56.1130485],[92.4068276,56.1130079],[92.4059549,56.1129028],[92.4047721,56.112621],[92.4038553,56.1122587],[92.403286,56.1119103],[92.4027318,56.111475],[92.4018855,56.1105171],[92.4011651,56.1099721],[92.4000669,56.1095339],[92.3989636,56.1093204],[92.3973187,56.1092277],[92.3948729,56.1095395],[92.3940303,56.1098464],[92.393143,56.1104038],[92.3925293,56.1109747],[92.3918409,56.1115696],[92.3906973,56.1120827],[92.3895134,56.1124001],[92.3882641,56.1125124],[92.3869693,56.112504],[92.3858308,56.11265],[92.3846117,56.1129674],[92.3830435,56.1138134],[92.3821743,56.1141192],[92.3812659,56.1143039],[92.3767796,56.1149702],[92.3723411,56.1156614],[92.3710973,56.1160354],[92.3698007,56.1167265],[92.3670191,56.1186164],[92.3647749,56.1202885],[92.3635006,56.1212111],[92.3615434,56.1217082],[92.3587195,56.1221983],[92.3546057,56.1222622],[92.352658,56.1223953],[92.3466754,56.122806],[92.3454066,56.122812],[92.3440472,56.1225486],[92.3431908,56.1222818],[92.3411756,56.1215152],[92.3406165,56.1219477],[92.3423835,56.1224545],[92.342692,56.122543],[92.3429364,56.1226495],[92.3434861,56.1228889],[92.3437298,56.1229951],[92.3438897,56.1230967],[92.3445431,56.1235117],[92.3448129,56.1236831],[92.3451796,56.1240605],[92.3455686,56.1244609],[92.3460027,56.1249233],[92.3465869,56.1254895],[92.3466416,56.1256038],[92.3469231,56.1260058],[92.3469489,56.1261457],[92.3470489,56.1263735],[92.3471051,56.1267185],[92.3469186,56.1274013],[92.3468963,56.1274801],[92.3466665,56.1278173],[92.3463409,56.1282966],[92.3460657,56.1287999],[92.3459969,56.1289261],[92.3459769,56.1290871],[92.3459314,56.129454],[92.3459565,56.1298744],[92.3464442,56.1305056],[92.3469187,56.1310227],[92.3470267,56.1310804],[92.3479011,56.1315477],[92.3492159,56.1320867],[92.3505157,56.1325331],[92.3512806,56.1326529],[92.3517348,56.132724],[92.3531016,56.1328111],[92.3554124,56.1328222],[92.3556931,56.1328515],[92.3568129,56.1329682],[92.3586705,56.1331538],[92.3604098,56.1333276],[92.3619451,56.1334745],[92.3641716,56.1336876],[92.3648683,56.1337543],[92.3675735,56.1340491],[92.3685609,56.1342315],[92.3694526,56.1345123],[92.3696217,56.134601],[92.3702284,56.1349193],[92.3711907,56.1357867],[92.371901,56.1364071],[92.3720864,56.1365032],[92.372466,56.1367001],[92.372843,56.1368956],[92.3731791,56.1369948],[92.3738607,56.1371959],[92.3744571,56.1372764],[92.3750042,56.1373503],[92.3766869,56.1373728],[92.3778607,56.1374598],[92.3790647,56.1377321],[92.3804368,56.1381727],[92.381352,56.1384666],[92.3822637,56.1387594],[92.3831344,56.1391399],[92.3839823,56.1396322],[92.3842081,56.1397783],[92.3858663,56.1408512],[92.3868534,56.1414899],[92.3879221,56.1420535],[92.3890834,56.1423869],[92.3904655,56.1425457],[92.3914318,56.1425133],[92.3917693,56.142502],[92.3919685,56.1424616],[92.3924849,56.1423568],[92.3933021,56.1421909],[92.3942637,56.1419957],[92.3945265,56.1419424],[92.3950973,56.1418673],[92.3952817,56.1418431],[92.3956982,56.1418301],[92.396166,56.1418154],[92.3963046,56.1418257],[92.3971397,56.1418876],[92.3972642,56.1418968],[92.3975545,56.1419721],[92.3981644,56.1421301],[92.3982457,56.1421512],[92.3979859,56.1421682],[92.3917765,56.1427005],[92.3702423,56.1443167],[92.2988916,56.1492855],[92.2803006,56.1507376],[92.2657708,56.1521714],[92.2639773,56.1523493],[92.2641802,56.1514702],[92.2648391,56.1503706],[92.2653838,56.1497362],[92.2655538,56.1493168],[92.264843,56.1485511],[92.2642561,56.1474166],[92.2643099,56.1464703],[92.2644719,56.1456189],[92.2644433,56.145298],[92.2635778,56.1443636],[92.264207,56.1180322],[92.2644283,56.1096706],[92.2641353,56.105063],[92.2627477,56.1050603],[92.2616102,56.1050318],[92.253171,56.1021986],[92.245947,56.0836275],[92.2470834,56.0814337],[92.2454658,56.0778467],[92.2455,56.0731441],[92.2428692,56.0665374],[92.2341854,56.0635907],[92.2240542,56.0591702],[92.2109433,56.0557238],[92.202302,56.0508984],[92.1902015,56.0457569],[92.189244,56.0437653],[92.1907189,56.0375273],[92.1893502,56.0306563],[92.1858707,56.026799],[92.1656295,56.0289354],[92.1590029,56.0295291],[92.1490151,56.0304444],[92.1475243,56.0299831],[92.1385415,56.0189016],[92.1383828,56.0185759],[92.1373265,56.0179508],[92.1355946,56.0172151],[92.1334817,56.0163051],[92.1302603,56.0131685],[92.1286324,56.0114645],[92.1265194,56.0103221],[92.1249954,56.0086374],[92.1240601,56.007185],[92.1219472,56.0057519],[92.1217394,56.0043962],[92.1214277,56.0038152],[92.1186913,56.0020914],[92.1178599,56.0013361],[92.1163489,56.0003967]]]}}